QIANFAN-73              
1 63159U 25046A   25290.98270279  .00000152  00000+0  21638-3 0  9993
2 63159  88.9789 325.7964 0012910 286.8177  73.1558 13.50970322 39882
QIANFAN-74              
1 63160U 25046B   25291.04030240  .00000143  00000+0  20332-3 0  9995
2 63160  88.9789 325.6788 0002157  98.6658 261.4738 13.50972261 39956
QIANFAN-75              
1 63161U 25046C   25291.02787756  .00000181  00000+0  26123-3 0  9991
2 63161  88.9790 325.9129 0014040 289.9897  69.9742 13.50980160 39824
QIANFAN-76              
1 63162U 25046D   25291.02384920  .00000081  00000+0  10719-3 0  9991
2 63162  88.9791 325.8942 0011600 291.1185  68.8726 13.50972233 39835
QIANFAN-77              
1 63163U 25046E   25290.99523144  .00000344  00000+0  24091-3 0  9990
2 63163  88.9786 324.3619 0012663 251.2327 108.7476 13.96072592 40679
QIANFAN-78              
1 63164U 25046F   25290.99095650  .00000151  00000+0  21472-3 0  9993
2 63164  88.9790 325.7621 0013007 293.5915  66.3869 13.50972693 39908
QIANFAN-79              
1 63165U 25046G   25291.01963814  .00000168  00000+0  24234-3 0  9991
2 63165  88.9792 325.8646 0012685 291.5447  68.4352 13.50971962 39850
QIANFAN-80              
1 63166U 25046H   25291.03620983  .00000168  00000+0  24238-3 0  9995
2 63166  88.9790 325.5712 0011708 296.8636  63.1317 13.50972709 40016
